HST                     
1 20580U 90037B   26196.50035387  .00003469  00000+0  10488-3 0  9994
2 20580  28.4723 247.0189 0002191 106.0764 254.0074 15.31063070792917
POLAR                   
1 23802U 96013A   26195.76553022  .00000202  00000+0  00000+0 0  9999
2 23802  79.8911 226.7248 6498087 208.1291  91.6735  1.29846068145216
SWAS                    
1 25560U 98071A   26196.37396370  .00001547  00000+0  10216-3 0  9994
2 25560  69.8941 154.8226 0007943 230.3399 129.7065 15.09747550501523
CXO                     
1 25867U 99040B   26198.46886808  .00000598  00000+0  00000+0 0  9994
2 25867  56.6226 115.7943 7787022 310.0504   0.5333  0.37805709 17431
XMM-NEWTON              
1 25989U 99066A   26199.26509817 -.00000005  00000+0  00000+0 0  9992
2 25989  64.3180 282.5861 4665036  64.3602 359.9798  0.50127855 23154
TERRA                   
1 25994U 99068A   26196.85356950  .00000177  00000+0  44919-4 0  9991
2 25994  97.9441 245.2610 0003443 121.3032 327.0497 14.61123975413796
CLUSTER II-FM7 (SAMBA)  
1 26410U 00041A   26197.13957184  .00051232 -58450-4  00000+0 0  9990
2 26410 149.8273  56.2567 9088690 273.7641 359.2168  0.44844033 20444
CLUSTER II-FM8 (TANGO)  
1 26464U 00045B   26195.45080911  .00019808  00000+0  00000+0 0  9996
2 26464 150.0346  57.1658 9090382 274.4944   1.9905  0.44416740 20433
ODIN                    
1 26702U 01007A   26196.11738259  .00268050  28117-4  92766-3 0  9992
2 26702  97.3728 239.0985 0005003 152.5421 207.6117 15.89461170393819
TIMED                   
1 26998U 01055B   26196.37536856  .00000530  00000+0  51694-4 0  9998
2 26998  74.0666 178.2592 0002251 300.4547  59.6415 14.95344710335034
CORIOLIS                
1 27640U 03001A   26196.73545991  .00000037  00000+0  37799-4 0  9998
2 27640  98.7135 203.1850 0014946 127.7588 232.4945 14.19951937218273
SORCE                   
1 27651U 03004A   26196.09845254  .00001382  00000+0  10927-3 0  9994
2 27651  39.9910 102.4143 0018709 253.8759 105.9975 15.03841818276104
MOST                    
1 27843U 03031D   26196.72193000  .00000013  00000+0  26146-4 0  9993
2 27843  98.7053 204.0502 0010115 163.5632 196.5875 14.21327771194768
SCISAT 1                
1 27858U 03036A   26196.79036748  .00000273  00000+0  39501-4 0  9993
2 27858  73.9301 114.5124 0007342 182.4815 177.6326 14.81479402235684
SWIFT                   
1 28485U 04047A   26196.46571655  .00041696  00000+0  30635-3 0  9990
2 28485  20.5527 326.3099 0002205  28.4870 331.5697 15.71188268191316
HINODE (SOLAR-B)        
1 29479U 06041A   26196.52789901  .00000298  00000+0  59589-4 0  9995
2 29479  98.0549 212.2626 0017052 193.3810 166.6946 14.68658575 59039
SHIJIAN-6 02A (SJ-6 02A)
1 29505U 06046A   26196.84876650  .00002250  00000+0  11655-3 0  9994
2 29505  97.6344 238.1334 0004285  60.8486 299.3175 15.17248328 76618
SHIJIAN-6 02B (SJ-6 02B)
1 29506U 06046B   26196.87060444  .00000390  00000+0  34876-4 0  9998
2 29506  97.7143 225.7513 0013353 334.0956  25.9598 15.01437956 75040
FGRST (GLAST)           
1 33053U 08029A   26196.77585955  .00002030  00000+0  67765-4 0  9997
2 33053  25.5829   5.9555 0007775 306.4638  53.5183 15.24078984    50
SDO                     
1 36395U 10005A   26196.34409456 -.00000103  00000+0  00000+0 0  9994
2 36395  34.7081  85.9138 0001836  46.0485 182.8654  1.00277108 60343
CRYOSAT 2               
1 36508U 10013A   26196.75230588  .00000128  00000+0  31136-4 0  9997
2 36508  92.0359 284.2460 0002403  98.7232 261.4248 14.51898564862226
X-SAT                   
1 37389U 11015C   26196.86923865 -.00000104  00000+0 -26683-4 0  9994
2 37389  98.3523 172.5289 0012714 258.7667 101.2085 14.25213502791764
GCOM-W1 (SHIZUKU)       
1 38337U 12025A   26196.80380933  .00000203  00000+0  55128-4 0  9991
2 38337  98.2023 136.9268 0001303  78.0178 336.2810 14.57090513753208
NUSTAR                  
1 38358U 12031A   26196.91668980  .00003677  00000+0  17284-3 0  9992
2 38358   6.0248 178.5961 0007703 185.1093 153.5955 15.09046177  1307
NEOSSAT                 
1 39089U 13009D   26196.78090769  .00000049  00000+0  31660-4 0  9994
2 39089  98.4190  16.1354 0011481 155.5744 204.5989 14.35835788700846
BRITE-AUSTRIA           
1 39091U 13009F   26196.76529549  .00000075  00000+0  39948-4 0  9994
2 39091  98.4008  15.4957 0010793 149.0396 211.1429 14.36552666701154
IRIS                    
1 39197U 13033A   26196.51497803  .00000512  00000+0  64789-4 0  9995
2 39197  97.9319  35.7028 0023347 223.9146 136.0214 14.85937284704582
HISAKI (SPRINT-A)       
1 39253U 13049A   26196.77774909  .00000095  00000+0  38256-4 0  9994
2 39253  29.7213  74.6504 0136988 248.6050 109.9856 13.55546830635309
CASSIOPE                
1 39265U 13055A   26196.74188028  .00019648 -53165-6  21046-3 0  9992
2 39265  80.9127  31.9739 0282773 326.0242  32.3154 15.27441987672027
STSAT-3                 
1 39422U 13066G   26196.87653766  .00001416  00000+0  11003-3 0  9997
2 39422  97.6190 166.3017 0008899 302.3988  57.6376 15.02887731688519
SWARM B                 
1 39451U 13067A   26196.87221400  .00001952  00000+0  68659-4 0  9991
2 39451  87.7460 333.6028 0002283  83.2668 276.8841 15.28719561687629
